ISS (ZARYA)             
1 25544U 98067A   26033.40416566  .00008568  00000+0  16704-3 0  9993
2 25544  51.6313 246.7863 0011124  56.5485 303.6565 15.48339220550868
CSS (TIANHE)            
1 48274U 21035A   26032.72956280  .00028466  00000+0  32520-3 0  9998
2 48274  41.4671  66.6440 0008781  58.4806 301.6890 15.61502009271995
ISS (NAUKA)             
1 49044U 21066A   26033.08145127  .00008786  00000+0  17110-3 0  9999
2 49044  51.6312 248.3815 0011127  55.3966 304.8070 15.48333853230446
FREGAT DEB              
1 49271U 11037PF  26031.32753165  .00037773  00000+0  66212-1 0  9993
2 49271  51.6511  52.4676 0919449 333.8142  21.8846 12.37389576208060
CSS (WENTIAN)           
1 53239U 22085A   26032.72956281  .00028466  00000+0  32520-3 0  9992
2 53239  41.4671  66.6440 0008780  58.4806 301.6890 15.61502009173846
CSS (MENGTIAN)          
1 54216U 22143A   26032.72956281  .00028466  00000+0  32520-3 0  9993
2 54216  41.4671  66.6440 0008780  58.4806 301.6890 15.61502009158643
PROGRESS-MS 31          
1 64751U 25146A   26033.08145127  .00008786  00000+0  17110-3 0  9994
2 64751  51.6312 248.3815 0011127  55.3966 304.8070 15.48333853  6753
TIANZHOU-9              
1 64786U 25149A   26032.72956281  .00028466  00000+0  32520-3 0  9995
2 64786  41.4671  66.6440 0008780  58.4806 301.6890 15.61502009255307
DRAGON CRS-33           
1 65304U 25186A   26033.08145127  .00008786  00000+0  17110-3 0  9993
2 65304  51.6312 248.3815 0011127  55.3966 304.8070 15.48333853   112
PROGRESS-MS 32          
1 65586U 25204A   26033.08145127  .00008786  00000+0  17110-3 0  9996
2 65586  51.6312 248.3815 0011127  55.3966 304.8070 15.48333853   271
CYGNUS NG-23            
1 65616U 25208A   26033.08145127  .00008786  00000+0  17110-3 0  9994
2 65616  51.6312 248.3815 0011127  55.3966 304.8070 15.48333853   220
1998-067XK              
1 65731U 98067XK  26032.96589848  .00197367  00000+0  97286-3 0  9999
2 65731  51.6224 234.8232 0003805 203.7513 156.3314 15.81004179 21209
