CCSDS_OMM_VERS = 2.0
CREATION_DATE  = 
ORIGINATOR     = 

OBJECT_NAME    = ISS (ZARYA)
OBJECT_ID      = 1998-067A
CENTER_NAME    = EARTH
REF_FRAME      = TEME
TIME_SYSTEM    = UTC
MEAN_ELEMENT_THEORY = SGP/SGP4

EPOCH          = 2026-02-02T09:41:59.913024
MEAN_MOTION    = 15.48339220
ECCENTRICITY   = .0011124
INCLINATION    = 51.6313
RA_OF_ASC_NODE = 246.7863
ARG_OF_PERICENTER = 56.5485
MEAN_ANOMALY   = 303.6565

EPHEMERIS_TYPE = 0
CLASSIFICATION_TYPE = U
NORAD_CAT_ID   = 25544
ELEMENT_SET_NO = 999
REV_AT_EPOCH   = 55086
BSTAR          = .16704E-3
MEAN_MOTION_DOT = .8568E-4
MEAN_MOTION_DDOT = 0

CCSDS_OMM_VERS = 2.0
CREATION_DATE  = 
ORIGINATOR     = 

OBJECT_NAME    = CSS (TIANHE)
OBJECT_ID      = 2021-035A
CENTER_NAME    = EARTH
REF_FRAME      = TEME
TIME_SYSTEM    = UTC
MEAN_ELEMENT_THEORY = SGP/SGP4

EPOCH          = 2026-02-01T17:30:34.225920
MEAN_MOTION    = 15.61502009
ECCENTRICITY   = .0008781
INCLINATION    = 41.4671
RA_OF_ASC_NODE = 66.6440
ARG_OF_PERICENTER = 58.4806
MEAN_ANOMALY   = 301.6890

EPHEMERIS_TYPE = 0
CLASSIFICATION_TYPE = U
NORAD_CAT_ID   = 48274
ELEMENT_SET_NO = 999
REV_AT_EPOCH   = 27199
BSTAR          = .3252E-3
MEAN_MOTION_DOT = .28466E-3
MEAN_MOTION_DDOT = 0

CCSDS_OMM_VERS = 2.0
CREATION_DATE  = 
ORIGINATOR     = 

OBJECT_NAME    = ISS (NAUKA)
OBJECT_ID      = 2021-066A
CENTER_NAME    = EARTH
REF_FRAME      = TEME
TIME_SYSTEM    = UTC
MEAN_ELEMENT_THEORY = SGP/SGP4

EPOCH          = 2026-02-02T01:57:17.389728
MEAN_MOTION    = 15.48333853
ECCENTRICITY   = .00111275
INCLINATION    = 51.6312
RA_OF_ASC_NODE = 248.3815
ARG_OF_PERICENTER = 55.3966
MEAN_ANOMALY   = 304.8070

EPHEMERIS_TYPE = 0
CLASSIFICATION_TYPE = U
NORAD_CAT_ID   = 49044
ELEMENT_SET_NO = 999
REV_AT_EPOCH   = 23044
BSTAR          = .17109812E-3
MEAN_MOTION_DOT = .8786E-4
MEAN_MOTION_DDOT = 0

CCSDS_OMM_VERS = 2.0
CREATION_DATE  = 
ORIGINATOR     = 

OBJECT_NAME    = FREGAT DEB
OBJECT_ID      = 2011-037PF
CENTER_NAME    = EARTH
REF_FRAME      = TEME
TIME_SYSTEM    = UTC
MEAN_ELEMENT_THEORY = SGP/SGP4

EPOCH          = 2026-01-31T07:51:38.734560
MEAN_MOTION    = 12.37389576
ECCENTRICITY   = .09194491
INCLINATION    = 51.6511
RA_OF_ASC_NODE = 52.4676
ARG_OF_PERICENTER = 333.8142
MEAN_ANOMALY   = 21.8846

EPHEMERIS_TYPE = 0
CLASSIFICATION_TYPE = U
NORAD_CAT_ID   = 49271
ELEMENT_SET_NO = 999
REV_AT_EPOCH   = 20806
BSTAR          = .66211825E-1
MEAN_MOTION_DOT = .37773E-3
MEAN_MOTION_DDOT = 0

CCSDS_OMM_VERS = 2.0
CREATION_DATE  = 
ORIGINATOR     = 

OBJECT_NAME    = CSS (WENTIAN)
OBJECT_ID      = 2022-085A
CENTER_NAME    = EARTH
REF_FRAME      = TEME
TIME_SYSTEM    = UTC
MEAN_ELEMENT_THEORY = SGP/SGP4

EPOCH          = 2026-02-01T17:30:34.226784
MEAN_MOTION    = 15.61502009
ECCENTRICITY   = .00087809
INCLINATION    = 41.4671
RA_OF_ASC_NODE = 66.6440
ARG_OF_PERICENTER = 58.4806
MEAN_ANOMALY   = 301.6890

EPHEMERIS_TYPE = 0
CLASSIFICATION_TYPE = U
NORAD_CAT_ID   = 53239
ELEMENT_SET_NO = 999
REV_AT_EPOCH   = 17384
BSTAR          = .32519537E-3
MEAN_MOTION_DOT = .28466E-3
MEAN_MOTION_DDOT = 0

CCSDS_OMM_VERS = 2.0
CREATION_DATE  = 
ORIGINATOR     = 

OBJECT_NAME    = CSS (MENGTIAN)
OBJECT_ID      = 2022-143A
CENTER_NAME    = EARTH
REF_FRAME      = TEME
TIME_SYSTEM    = UTC
MEAN_ELEMENT_THEORY = SGP/SGP4

EPOCH          = 2026-02-01T17:30:34.226784
MEAN_MOTION    = 15.61502009
ECCENTRICITY   = .00087809
INCLINATION    = 41.4671
RA_OF_ASC_NODE = 66.6440
ARG_OF_PERICENTER = 58.4806
MEAN_ANOMALY   = 301.6890

EPHEMERIS_TYPE = 0
CLASSIFICATION_TYPE = U
NORAD_CAT_ID   = 54216
ELEMENT_SET_NO = 999
REV_AT_EPOCH   = 15864
BSTAR          = .32519537E-3
MEAN_MOTION_DOT = .28466E-3
MEAN_MOTION_DDOT = 0

CCSDS_OMM_VERS = 2.0
CREATION_DATE  = 
ORIGINATOR     = 

OBJECT_NAME    = PROGRESS-MS 31
OBJECT_ID      = 2025-146A
CENTER_NAME    = EARTH
REF_FRAME      = TEME
TIME_SYSTEM    = UTC
MEAN_ELEMENT_THEORY = SGP/SGP4

EPOCH          = 2026-02-02T01:57:17.389728
MEAN_MOTION    = 15.48333853
ECCENTRICITY   = .00111275
INCLINATION    = 51.6312
RA_OF_ASC_NODE = 248.3815
ARG_OF_PERICENTER = 55.3966
MEAN_ANOMALY   = 304.8070

EPHEMERIS_TYPE = 0
CLASSIFICATION_TYPE = U
NORAD_CAT_ID   = 64751
ELEMENT_SET_NO = 999
REV_AT_EPOCH   = 675
BSTAR          = .17109812E-3
MEAN_MOTION_DOT = .8786E-4
MEAN_MOTION_DDOT = 0

CCSDS_OMM_VERS = 2.0
CREATION_DATE  = 
ORIGINATOR     = 

OBJECT_NAME    = TIANZHOU-9
OBJECT_ID      = 2025-149A
CENTER_NAME    = EARTH
REF_FRAME      = TEME
TIME_SYSTEM    = UTC
MEAN_ELEMENT_THEORY = SGP/SGP4

EPOCH          = 2026-02-01T17:30:34.226784
MEAN_MOTION    = 15.61502009
ECCENTRICITY   = .00087809
INCLINATION    = 41.4671
RA_OF_ASC_NODE = 66.6440
ARG_OF_PERICENTER = 58.4806
MEAN_ANOMALY   = 301.6890

EPHEMERIS_TYPE = 0
CLASSIFICATION_TYPE = U
NORAD_CAT_ID   = 64786
ELEMENT_SET_NO = 999
REV_AT_EPOCH   = 25530
BSTAR          = .32519537E-3
MEAN_MOTION_DOT = .28466E-3
MEAN_MOTION_DDOT = 0

CCSDS_OMM_VERS = 2.0
CREATION_DATE  = 
ORIGINATOR     = 

OBJECT_NAME    = DRAGON CRS-33
OBJECT_ID      = 2025-186A
CENTER_NAME    = EARTH
REF_FRAME      = TEME
TIME_SYSTEM    = UTC
MEAN_ELEMENT_THEORY = SGP/SGP4

EPOCH          = 2026-02-02T01:57:17.389728
MEAN_MOTION    = 15.48333853
ECCENTRICITY   = .00111275
INCLINATION    = 51.6312
RA_OF_ASC_NODE = 248.3815
ARG_OF_PERICENTER = 55.3966
MEAN_ANOMALY   = 304.8070

EPHEMERIS_TYPE = 0
CLASSIFICATION_TYPE = U
NORAD_CAT_ID   = 65304
ELEMENT_SET_NO = 999
REV_AT_EPOCH   = 11
BSTAR          = .17109812E-3
MEAN_MOTION_DOT = .8786E-4
MEAN_MOTION_DDOT = 0

CCSDS_OMM_VERS = 2.0
CREATION_DATE  = 
ORIGINATOR     = 

OBJECT_NAME    = PROGRESS-MS 32
OBJECT_ID      = 2025-204A
CENTER_NAME    = EARTH
REF_FRAME      = TEME
TIME_SYSTEM    = UTC
MEAN_ELEMENT_THEORY = SGP/SGP4

EPOCH          = 2026-02-02T01:57:17.389728
MEAN_MOTION    = 15.48333853
ECCENTRICITY   = .00111275
INCLINATION    = 51.6312
RA_OF_ASC_NODE = 248.3815
ARG_OF_PERICENTER = 55.3966
MEAN_ANOMALY   = 304.8070

EPHEMERIS_TYPE = 0
CLASSIFICATION_TYPE = U
NORAD_CAT_ID   = 65586
ELEMENT_SET_NO = 999
REV_AT_EPOCH   = 27
BSTAR          = .17109812E-3
MEAN_MOTION_DOT = .8786E-4
MEAN_MOTION_DDOT = 0

CCSDS_OMM_VERS = 2.0
CREATION_DATE  = 
ORIGINATOR     = 

OBJECT_NAME    = CYGNUS NG-23
OBJECT_ID      = 2025-208A
CENTER_NAME    = EARTH
REF_FRAME      = TEME
TIME_SYSTEM    = UTC
MEAN_ELEMENT_THEORY = SGP/SGP4

EPOCH          = 2026-02-02T01:57:17.389728
MEAN_MOTION    = 15.48333853
ECCENTRICITY   = .00111275
INCLINATION    = 51.6312
RA_OF_ASC_NODE = 248.3815
ARG_OF_PERICENTER = 55.3966
MEAN_ANOMALY   = 304.8070

EPHEMERIS_TYPE = 0
CLASSIFICATION_TYPE = U
NORAD_CAT_ID   = 65616
ELEMENT_SET_NO = 999
REV_AT_EPOCH   = 22
BSTAR          = .17109812E-3
MEAN_MOTION_DOT = .8786E-4
MEAN_MOTION_DDOT = 0

CCSDS_OMM_VERS = 2.0
CREATION_DATE  = 
ORIGINATOR     = 

OBJECT_NAME    = 1998-067XK
OBJECT_ID      = 1998-067XK
CENTER_NAME    = EARTH
REF_FRAME      = TEME
TIME_SYSTEM    = UTC
MEAN_ELEMENT_THEORY = SGP/SGP4

EPOCH          = 2026-02-01T23:10:53.628672
MEAN_MOTION    = 15.81004179
ECCENTRICITY   = .00038051
INCLINATION    = 51.6224
RA_OF_ASC_NODE = 234.8232
ARG_OF_PERICENTER = 203.7513
MEAN_ANOMALY   = 156.3314

EPHEMERIS_TYPE = 0
CLASSIFICATION_TYPE = U
NORAD_CAT_ID   = 65731
ELEMENT_SET_NO = 999
REV_AT_EPOCH   = 2120
BSTAR          = .97286464E-3
MEAN_MOTION_DOT = .197367E-2
MEAN_MOTION_DDOT = 0

